{
  "norad_id": 51469,
  "name": "STARLINK-3182",
  "history": [
    {
      "epoch": "2026-03-28T16:58:20.847072",
      "apogee_km": 540.5703070043619,
      "perigee_km": 538.8943839767244,
      "latitude_deg": 9.552664689248651,
      "longitude_deg": 114.78983007976785,
      "semi_major_axis_km": 6917.869345490543,
      "eccentricity": 0.00012113,
      "inclination_deg": 53.2166,
      "raan_deg": 193.7475,
      "arg_perigee_deg": 88.5867,
      "mean_anomaly_deg": 271.5264,
      "mean_motion_rev_day": 15.08843613
    }
  ]
}